{
  "norad_id": 66929,
  "name": "STARLINK-36169",
  "history": [
    {
      "epoch": "2026-03-28T21:54:43.313184",
      "apogee_km": 476.1050555995089,
      "perigee_km": 474.29029257780985,
      "latitude_deg": 51.67647639073945,
      "longitude_deg": -119.45187424006872,
      "semi_major_axis_km": 6853.334674088659,
      "eccentricity": 0.0001324,
      "inclination_deg": 53.1579,
      "raan_deg": 268.8997,
      "arg_perigee_deg": 78.921,
      "mean_anomaly_deg": 281.194,
      "mean_motion_rev_day": 15.30205826
    }
  ]
}